STARLINK-3060           
1 49155U 21082AB  26068.89708602 -.00000460  00000+0 -30737-4 0  9994
2 49155  69.9990 253.9239 0002802 264.0018  96.0821 14.98331265248073
KUIPER-00050            
1 64510U 25134L   26068.69256258  .00006094  00000+0  54273-3 0  9998
2 64510  51.8888 211.9413 0004326 323.7107  36.3569 14.97208204 40378
